Community Area Name,Community Area Number,Property Type,Property Name,Address,Zip Code,Phone Number,Management Company,Units,X Coordinate,Y Coordinate,Latitude,Longitude,Location
Albany Park,14,Senior,Mayfair Commons,4444 W. Lawrence Ave.,60630,773-205-7862,"Metroplex, Inc.",97,1145674.7538177613,1931569.979044555,41.9682242321,-87.7397474866,"4444 W. Lawrence Ave.
(41.9682242321, -87.7397474866)"
Albany Park,14,Senior,Senior Suites of Ravenswood Manor,2800 W. Montrose Ave.,60618,773-509-9333,Senior Lifestyle Corp.,80,1156898.5139453819,1929148.4609726223,41.9613586525,-87.6985441744,"2800 W. Montrose Ave.
(41.9613586525, -87.6985441744)"
Albany Park,14,Senior,Darul Amaan Senior Living,4814-58 N. Kedzie Ave.,60625,773-463-3004,East Lake Management & Development Corp.,56,,,,,
Ashburn ,70,Senior,Wrightwood Senior Apartments,2815 W. 79th St.,60652,773-471-7777,Ludwig and Company,85,1158906.9337661215,1852040.9542699235,41.7497264566,-87.6932733372,"2815 W. 79th St.
(41.7497264566, -87.6932733372)"
Auburn Gresham,71,Multifamily,Stone Terrace,8440 S. Parnell Ave.,60620,773-651-9234,East Lake Management & Development Corp.,56,1174067.0161528846,1848682.073813996,41.740186358,-87.6378199128,"8440 S. Parnell Ave.
(41.740186358, -87.6378199128)"
Auburn Gresham,71,Senior HUD 202,St. Sabina Elder Village Apartments,1222 W. 79th St.,60620,773-994-7850,Catholic Charities Housing Devp.,80,1169422.9298314867,1852437.4683081156,41.7505934139,-87.6547267546,"1222 W. 79th St.
(41.7505934139, -87.6547267546)"
Auburn Gresham,71,Senior,Senior Suites of Auburn-Gresham,1050 W. 79th St.,60620,773-723-0333,Senior Lifestyle Corp.,85,1170460.9005370243,1852465.7954619504,41.7506486193,-87.6509223206,"1050 W. 79th St.
(41.7506486193, -87.6509223206)"
Auburn Gresham,71,Senior HUD 202,Naomi & Sylvester Smith Senior Living Ctr.,8019-55 S. Halsted St.,60620,773-651-6400,"HSR Property Services, LLC",59,1172404.4659361218,1851597.1338227245,41.7482223777,-87.6438256988,"8019-55 S. Halsted St.
(41.7482223777, -87.6438256988)"
Auburn Gresham,71,Senior,Auburn Commons,1626 W. 87th St.,60620,773-238-0850,"Urban Property Advisors, LLC",72,1166895.2399723816,1847057.795509487,41.7358851523,-87.6641427166,"1626 W. 87th St.
(41.7358851523, -87.6641427166)"
Austin,25,Multifamily,Pine Central,557 N. Pine Ave.,60644,773-568-1020,NHS Redevelopment Corp.,78,1139471.8964290908,1903210.8349472568,41.8905193977,-87.7632486365,"557 N. Pine Ave.
(41.8905193977, -87.7632486365)"
Austin,25,Senior,Senior Suites of Austin,335 N. Menard Ave.,60644,773-378-0333,Senior Lifestyle Corp.,84,1137686.376645474,1901819.130569767,41.8867327472,-87.7698395847,"335 N. Menard Ave.
(41.8867327472, -87.7698395847)"
Austin,22,Multifamily,Madison Renaissance Apts.,1816 N. St. Louis Ave.,60647,773-227-1366,Related Management Co. LP,30,1152824.2609262054,1911838.8695456833,41.9139416392,-87.7139831909,"1816 N. St. Louis Ave.
(41.9139416392, -87.7139831909)"
Austin,25,Supportive Housing,Menard Apartments,334 N. Menard Ave.,60644,773-572-5272,The Thresholds,57,1137606.4146619358,1901816.6645631457,41.8867274207,-87.7701332901,"334 N. Menard Ave.
(41.8867274207, -87.7701332901)"
Austin,25,Multifamily,Rebecca Walker Complex,126 S. Central Ave.,60644,773-261-1550,Affordable Property Management Specialist,40,1139038.207738362,1898825.9744650354,41.8784946733,-87.7649480305,"126 S. Central Ave.
(41.8784946733, -87.7649480305)"
Austin,25,Multifamily,Rebecca Walker Complex,223-9 S. Central Ave.,60644,773-261-1550,Affordable Property Management Specialist,12,1139130.0755862487,1898499.8733970954,41.8775981392,-87.7646186402,"223-9 S. Central Ave.
(41.8775981392, -87.7646186402)"
Austin,25,Multifamily,Rebecca Walker Complex,5565-71 W. Quincy Ave.,60644,773-261-1550,Affordable Property Management Specialist,12,1139234.679867539,1898405.584397663,41.8773374951,-87.7642368505,"5565-71 W. Quincy Ave.
(41.8773374951, -87.7642368505)"
Austin,25,Multifamily,Congress Commons LLC,504 S. Laramie Ave.,60644,773-287-1592,Congress Commons LLC,161,1141766.8175998074,1897120.6862710943,41.873765121,-87.7549712034,"504 S. Laramie Ave.
(41.873765121, -87.7549712034)"
Austin,25,Senior HUD 202,Enola A. Dew Senior Apartments,4623 W. Gladys Ave.,60644,773-287-2972,"Prairie Management & Development, Inc.",60,1145481.1114175122,1897910.062111502,41.8758617765,-87.7413139552,"4623 W. Gladys Ave.
(41.8758617765, -87.7413139552)"
Austin,25,Senior HUD 202,Elois McCoy Village Apartments,4650 W. Van Buren St.,60644,773-626-5320,"Prairie Management & Development, Inc.",60,1145250.3076783537,1897655.194765888,41.875166755,-87.7421678378,"4650 W. Van Buren St.
(41.875166755, -87.7421678378)"
Austin,25,Supportive/Teenage Moms,Home for New Moms,5327 W. Chicago Ave.,60651,773-610-7696,"New Moms, Inc.",40,,,,,
Avalon Park,45,Senior,Montclare Senior Residences of Avalon Park,1200 E. 78th St.,60619,773-933-9000,Montclare Senior Residences,102,1185587.7421578558,1853564.4589579385,41.7533208609,-87.5954564009,"1200 E. 78th St.
(41.7533208609, -87.5954564009)"
Belmont Cragin,19,ARO,TBD,2917-39 N. Central Ave.,60634,708-867-3799,Zitella Development ,3,,,,,
Belmont Cragin,19,Senior,Senior Suites of Belmont-Cragin,6045 W. Grand Ave.,60639,773-237-1333,Senior Lifestyle Corp.,86,1135526.173557574,1914216.3828398387,41.9207910105,-87.7774775508,"6045 W. Grand Ave.
(41.9207910105, -87.7774775508)"
Belmont Cragin,19,Senior,Senior Suites of Kelvyn Park,2715 N. Cicero Ave.,60639,773-252-0333,Senior Lifestyle Corp.,85,1143963.794996609,1917674.6468974263,41.9301265688,-87.7463885389,"2715 N. Cicero Ave.
(41.9301265688, -87.7463885389)"
Belmont Cragin,19,Senior,Crystal Courts/Anixter Center,5038 W. Armitage Ave.,60639,773-385-9080,Lester and Rosalie Anixter Center,17,1142340.781111415,1912865.6593521584,41.916960542,-87.7524724894,"5038 W. Armitage Ave.
(41.916960542, -87.7524724894)"
Bridgeport,60,Senior,Senior Suites of Bridgeport,2825 S. Halsted St.,60608,312-326-0333,Senior Lifestyle Corp.,85,1171468.4089095024,1886029.5277608237,41.8427291512,-87.6462472701,"2825 S. Halsted St.
(41.8427291512, -87.6462472701)"
Chatham,44,Supportive Housing,Karibuni Place,8200 S. Ellis Ave.,60619,773-873-0708,Heartland Housing,72,1184284.1534667031,1850796.8943722805,41.7457569581,-87.6003199107,"8200 S. Ellis Ave.
(41.7457569581, -87.6003199107)"
Chatham,44,Senior,Senior Suites of Chatham,8300 S. Cottage Grove Ave.,60619,773-488-1333,Senior Lifestyle Corp.,90,1182964.715820796,1850099.4442601332,41.743873821,-87.6051761606,"8300 S. Cottage Grove Ave.
(41.743873821, -87.6051761606)"
Chicago Lawn,66,Senior,Lawn Terrace Independent  Living Apartments,3214 W. 63rd Place,60629,773-925-0815,Greater Southwest Dev. Corp.,102,1155938.0920476676,1862375.0314674582,41.7781448626,-87.7038754099,"3214 W. 63rd Place
(41.7781448626, -87.7038754099)"
Chicago Lawn,66,Senior,Senior Suites of Marquette Village,7430 S. Rockwell St.,60629,773-432-8420,Senior Lifestyle Corp.,93,1160293.921943526,1855122.4462694346,41.7581541131,-87.6881061075,"7430 S. Rockwell St.
(41.7581541131, -87.6881061075)"
Chicago Lawn,66,Senior,Churchview Manor Independent Living,2626 W. 63rd St.,60629,773-925-0730,Greater Southwest Dev. Corp.,60,1159807.027511733,1862817.6897337392,41.7792809902,-87.6896794864,"2626 W. 63rd St.
(41.7792809902, -87.6896794864)"
Chicago Lawn,66,Senior,Churchview Supportive Assisted Living,2626 W. 63rd St.,60629,773-471-4444,Greater Southwest Dev. Corp.,86,1159807.027511733,1862817.6897337392,41.7792809902,-87.6896794864,"2626 W. 63rd St.
(41.7792809902, -87.6896794864)"
Douglas,35,Multifamily,Park Boulevard IA,3845 S. State St.,60609,773-548-8792,"Urban Property Advisors, LLC",80,1176967.1197216897,1879322.1676457142,41.8242011421,-87.6262712265,"3845 S. State St.
(41.8242011421, -87.6262712265)"
Douglas,35,Multifamily,Park Boulevard IIA,17 W. 36th St.,60609,773-548-8792,"Urban Property Advisors, LLC",36,1176708.7667284424,1881091.478702779,41.8290621083,-87.6271656778,"17 W. 36th St.
(41.8290621083, -87.6271656778)"
Douglas,35,Multifamily,Park Boulevard IIA,3604 S. State St.,60609,773-548-8792,"Urban Property Advisors, LLC",6,1176845.9146180158,1881076.3818232405,41.8290175865,-87.6266629487,"3604 S. State St.
(41.8290175865, -87.6266629487)"
Douglas,35,Multifamily,Park Boulevard IIA,3612 S. State St.,60609,773-548-8792,"Urban Property Advisors, LLC",6,1176848.8921292,1880973.883357372,41.8287362552,-87.6266551179,"3612 S. State St.
(41.8287362552, -87.6266551179)"
Douglas,35,Multifamily,Park Boulevard IIA,3640 S. State St.,60609,773-548-8792,"Urban Property Advisors, LLC",80,1176856.6105213976,1880678.421982759,41.8279253109,-87.6266357171,"3640 S. State St.
(41.8279253109, -87.6266357171)"
Douglas,35,Multifamily,Park Boulevard IB,3506 S. State St.,60609,773-548-8792,"Urban Property Advisors, LLC",54,1176805.9513533777,1881719.1078143609,41.8307821806,-87.6267901762,"3506 S. State St.
(41.8307821806, -87.6267901762)"
Douglas,35,Multifamily,Park Boulevard IIB,3633 S. State St.,60609,773-548-8792,"Urban Property Advisors, LLC",12,,,,,
Douglas ,35,Multifamily,Park Boulevard IIB,10 W. 37th St.,60609,773-548-8792,"Urban Property Advisors, LLC",12,,,,,
Douglas ,35,Mutifamily,Park Boulevard IIB,15 W. 37th St.,60609,773-548-8792,"Urban Property Advisors, LLC",12,,,,,
Douglas,35,Multifamily,Park Boulevard IIB,3700 S. Dearborn St.,60609,773-548-8792,"Urban Property Advisors, LLC",72,,,,,
Douglas,35,Multifamily,South Park Plaza,2600 S. King Dr.,60616,312-674-9210,Woodlawn Comm. Dev. Corp.,134,1179206.472330668,1887158.1958682442,41.8456529118,-87.617816391,"2600 S. King Dr.
(41.8456529118, -87.617816391)"
Douglas,35,Senior,Pioneer Gardens Supportive Living,3800 S. King Dr.,60653,773-420-4100,Pioneer Gardens Senior Housing,120,1179441.3581913854,1879836.3986584914,41.8255559976,-87.6171784181,"3800 S. King Dr.
(41.8255559976, -87.6171784181)"
Douglas,35,Senior,Pioneer Village Apartments,340 E. 38th St.,60653,773-536-0463,Pioneer Affordable Housing Preservation,152,1179348.3600891535,1879907.4959198073,41.8257532207,-87.6175174282,"340 E. 38th St.
(41.8257532207, -87.6175174282)"
Dunning,17,Senior,Autumn Green at Wright Campus,4239 N. Oak Park Ave.,60634,773-202-3388,Senior Lifestyle Corp.,129,,,,,
East Garfield Park,27,Multifamily,Ike Sims Village,3333 W. Maypole Ave.,60624,773-638-1818,Village Green Management Co.,200,1129981.0183291987,1927628.4836435749,41.9576922115,-87.7975440334,"3333 W. Maypole Ave.
(41.9576922115, -87.7975440334)"
East Garfield Park,27,Multifamily/Artists,Switching Station Lofts ,15 S. Homan Ave.,60624,312-859-0577,Holsten Management Corp.,24,1153978.228846477,1900741.035115148,41.8834651917,-87.7100399091,"15 S. Homan Ave.
(41.8834651917, -87.7100399091)"
East Garfield Park,27,Senior,Heritage Woods of Chicago,2800 W. Fulton St.,60612,773-722-2900,BMA Management Ltd.,113,1153767.678032582,1899627.5293921034,41.8804138115,-87.7108427298,"2800 W. Fulton St.
(41.8804138115, -87.7108427298)"
East Garfield Park,27,Multifamily,Homan Square Apartments Phase I,750 S. Homan Ave.,60624,773-722-7320,Realty & Mortgage Co.,50,1157527.9754137222,1898606.336367213,41.8775358858,-87.6970630483,"750 S. Homan Ave.
(41.8775358858, -87.6970630483)"
East Garfield Park,27,Multifamily,Homan Square Apartments Phase IV ,908 S. Central Park Ave.,60624,773-722-7320,Realty & Mortgage Co.,108,1153790.484760921,1896268.990949446,41.8711971734,-87.7108484249,"908 S. Central Park Ave.
(41.8711971734, -87.7108484249)"
East Garfield Park,27,Multifamily,Homan Square Apartments Phase V,3607 W. Polk St.,60624,773-722-7320,Realty & Mortgage Co.,42,,,,,
East Garfield Park,27,Multifamily,Homan Square Apartments Phase VI ,3609 W. Arthington St.,60624,773-722-7320,Realty & Mortgage Co.,52,,,,,
East Garfield Park,27,Supportive Housing,Deborah's Place III,2822 W. Jackson Blvd.,60612,773-638-6490,Deborah's Place ,90,,,,,
East Garfield Park,27,Supportive Housing,East Park Apartments,3300 W. Maypole Ave.,60624,773-826-3300,The Habitat Co.,152,1152413.6927732248,1896087.1805657751,41.8707255523,-87.7159079717,"3300 W. Maypole Ave.
(41.8707255523, -87.7159079717)"
East Garfield Park,27,Multifamily,Liberty Square Apartments,705-23 S. Independence Ave.,60624,773-538-3800,Bonheur Realty Services Corp.,66,1154287.3392122313,1900828.1298343563,41.8836980221,-87.7089025002,"705-23 S. Independence Ave.
(41.8836980221, -87.7089025002)"
Edgewater,77,Multifamily,Winthrop Apartments,6214 N. Winthrop Ave.,60660,773-477-7070 ext. 16,Hunter Properties,108,1151407.4614220564,1896705.2397940052,41.8724413776,-87.7195859945,"6214 N. Winthrop Ave.
(41.8724413776, -87.7195859945)"
Edgewater,77,Senior,Hollywood House Apartments,5700 N. Sheridan Road,60660,773-728-2600,Heartland Housing,93,1152020.6976382213,1896079.3240627667,41.870711741,-87.7173510087,"5700 N. Sheridan Road
(41.870711741, -87.7173510087)"
Edgewater,77,Senior,Pomeroy Apartments,5650 N. Kenmore Ave.,60660,773-275-7820,Habitat Company,198,1167688.7086010627,1941496.3681431552,41.9950154576,-87.6585160357,"5650 N. Kenmore Ave.
(41.9950154576, -87.6585160357)"
Edgewater,77,Multifamily,Bell Shore Apartments,1062 W. Bryn Mawr Ave.,60660,773-334-5407,Holsten Management Corp.,105,1168565.9159576842,1938087.0102101795,41.9856410954,-87.6553885441,"1062 W. Bryn Mawr Ave.
(41.9856410954, -87.6553885441)"
Englewood,68,Senior,Yale Building,6565 S. Yale Ave.,60621,773-224-7669,Yale Building LLP,140,1168181.1238168452,1937918.400495236,41.9851867755,-87.656808677,"6565 S. Yale Ave.
(41.9851867755, -87.656808677)"
Englewood,68,Multifamily,Antioch Homes II,301 W. Marquette Road,60621,773-994-4546,"Universal Management Service, Inc.",69,1167941.8132828113,1937401.2566281443,41.9837729037,-87.6577038394,"301 W. Marquette Road
(41.9837729037, -87.6577038394)"
Englewood,68,People with Disabilities,Victoria Jennings Residences,624 W. 61st St.,60621,773-994-3690,"HSR Property Services, LLC",57,1175681.0917438765,1861260.6910332246,41.7746676247,-87.6315301982,"624 W. 61st St.
(41.7746676247, -87.6315301982)"
Englewood,68,Supportive Housing,Rowan Trees Apartments,500 W. Englewood Ave.,60621,773-572-5272,The Thresholds,167,1175444.812850503,1860492.0838049254,41.7725637689,-87.6324193182,"500 W. Englewood Ave.
(41.7725637689, -87.6324193182)"
Englewood,68,Supportive Housing,Englewood Apartments,901 W. 63rd Street,60621,773-994-3199,Mercy Housing,45,1176891.268251813,1858664.4336695173,41.7675160252,-87.6271720535,"901 W. 63rd Street
(41.7675160252, -87.6271720535)"
Englewood,68,Supportive Housing,Branch of Hope Apartments,5628-30 S. Halsted Ave.,60621,773-488-7205,Evergreen Real Estate LLC,99,1174002.159513655,1863521.643252472,41.7809093636,-87.637617817,"5628-30 S. Halsted Ave.
(41.7809093636, -87.637617817)"
Englewood,68,Supportive/Veterans,Hope Manor II Apartments,60th/Halsted,60621,773-874-3610,Voluinteers of America Illinois,73,1171373.6614958383,1863023.3677886287,41.7795999913,-87.6472689598,"60th/Halsted
(41.7795999913, -87.6472689598)"
Fuller Park,37,Senior,Fellowship Manor,5041 S. Princeton Ave.,60609,773-924-5980,"East Lake Management Group, Inc.",100,,,,,
Gage Park,63,Senior,Senior Suites of Gage Park,3244 W. 59th St.,60629,773-434-4333,Senior Lifestyle Corp.,59,1171893.838747747,1867410.6620249962,41.7916278176,-87.6452332087,"3244 W. 59th St.
(41.7916278176, -87.6452332087)"
Garfield Ridge,56,Senior,Senior Suites of Garfield Ridge,5839 S. Harlem Ave.,60638,773-229-1533,Senior Lifestyle Corp.,87,1175183.4790044015,1871367.582271373,41.8024131184,-87.6330525826,"5839 S. Harlem Ave.
(41.8024131184, -87.6330525826)"
Grand Boulevard,38,Multifamily,Indiana Manor Town Homes,44th/Indiana,60653,773-268-5326,Indiana Manor Townhomes,87,1155572.425115435,1865354.4067786196,41.786328045,-87.705136175,"44th/Indiana
(41.786328045, -87.705136175)"
Grand Boulevard,38,Multifamily,Hearts United Phase I - The Langston,41st St. - 44th St. ,60653,773-538-3800,Bonheur Realty Services Corp.,65,1129403.7448869708,1864822.9118978602,41.7853541249,-87.8010979955,"41st St. - 44th St.
(41.7853541249, -87.8010979955)"
Grand Boulevard,38,Multifamily,Hearts United Phase II - The Quincy,E. Evans - W. Vincennes,60653,773-538-3800,Bonheur Realty Services Corp.,116,,,,,
Grand Boulevard,38,Multifamily,Progressive Square,4752 S. Wabash Ave.,60614,773-975-7234,CMHDC/Progressive NFP/Kass Management,107,,,,,
Grand Boulevard,38,Senior,Park Boulevard Tower/Grand Renaissance Apts.,4257 S. King Dr.,60653,773-268-4642,"East Lake Management Group, Inc.",24,,,,,
Grand Boulevard,38,Multifamily,Geneva Gables,4420-24 S. Michigan Ave.,60653,773-924-7700,Tri-Mart Management Co. ,65,1177483.2463556484,1873312.722072644,41.8076990345,-87.6245595889,"4420-24 S. Michigan Ave.
(41.8076990345, -87.6245595889)"
Grand Boulevard,38,Multifamily,Paul G. Stewart Phase V,400 E. 41st St.,60653,773-924-2100,Paul G. Stewart Assoc.,20,1179612.435611574,1876628.6050863636,41.8167496439,-87.6166489475,"400 E. 41st St.
(41.8167496439, -87.6166489475)"
Grand Boulevard,38,Supportive Housing,Washington Park SRO,5000 S. Indiana Ave.,60615,773-924-1107,"East Lake Management Group, Inc.",96,1177858.6856956813,1875634.1971797955,41.8140608614,-87.6231122243,"5000 S. Indiana Ave.
(41.8140608614, -87.6231122243)"
Grand Boulevard,38,Senior HUD 202,Margaret Ford Manor Independent Living,4500 S. Wabash Ave.,60653,773-924-9171,"HSR Property Services, LLC",63,1179638.2483418202,1877940.683099849,41.8203495003,-87.6165141095,"4500 S. Wabash Ave.
(41.8203495003, -87.6165141095)"
Grand Boulevard,38,Senior,Cornerstone/Evans Langley,4907 S. St. Lawrence Ave.,60615,773-548-9211,"Metroplex, Inc.",60,1178406.436772831,1871882.895572396,41.8037545212,-87.6212170565,"4907 S. St. Lawrence Ave.
(41.8037545212, -87.6212170565)"
Grand Boulevard,38,Multifamily,Legends South - Hansberry Square,4034 S. State St.,60609,773-548-8800,Interstate Realty Management Co.,45,1177427.156074382,1875236.6231905173,41.8129796596,-87.6247071273,"4034 S. State St.
(41.8129796596, -87.6247071273)"
Grand Boulevard,38,Multifamily,Legends South - Mahalia Place,116 E. 43rd St.,60653,773-285-9500,Interstate Realty Management Co.,181,1181127.0103401996,1872564.798405132,41.805563433,-87.6112184342,"116 E. 43rd St.
(41.805563433, -87.6112184342)"
Grand Boulevard,38,Multifamily,Legends South - Coleman Place,223 E. 41st St.,60653,773-268-0202,Interstate Realty Management Co.,110,1176907.6358102283,1878122.6231740906,41.8209108342,-87.6265256539,"223 E. 41st St.
(41.8209108342, -87.6265256539)"
Grand Boulevard,38,Multifamily,Legends South - Savoy Square,4448 S. State St.,60609,773-624-7676,Interstate Realty Management Co.,118,1178081.8752660828,1876584.156148254,41.816662565,-87.6222647175,"4448 S. State St.
(41.816662565, -87.6222647175)"
Grand Boulevard,38,Multifamily,Bronzeville Family Apartments,400 E. 41st St.,60653,773-924-2100,Peoples Co-Op Management Service,60,1176982.246436822,1875311.406647018,41.8131949278,-87.6263367998,"400 E. 41st St.
(41.8131949278, -87.6263367998)"
Grand Boulevard,38,Artist Live/Work Space,Bronzeville Artists Lofts,436 E. 47th St.,60653,773-324-1745,Revere Properties,16,,,,,
Grand Boulevard,38,Senior,Bronzeville Senior Apartments,460 E. 41st St.,60653,773-924-2100,Peoples Co-Op Management Service,97,,,,,
Greater Grand Crossing,69,Multifamily,Englewood Gardens,6956 S. Vincennes Ave.,60621,773-994-4830,"East Lake Management Group, Inc.",24,,,,,
Greater Grand Crossing,69,Artist Housing,Dorchester Art + Housing Collaborative,1450 E. 70th St.,60619,773-324-2270,Leasing & Management Co. Inc.,32,,,,,
Hegewisch,55,Senior,Senior Suites of Hegewisch,13550 S. Avenue O,60633,773-646-1333 ext. 1,Senior Lifestyle Corp.,116,1173046.574629759,1864479.4697238435,41.7835589092,-87.6410928975,"13550 S. Avenue O
(41.7835589092, -87.6410928975)"
Humboldt Park,23,Supportive Housing,Sanctuary Place,642 N. Kedzie Ave.,60612,773-265-0983,Interfaith Housing Corp.,84,1181578.0672018046,1876691.9354204505,41.8168782136,-87.6094366505,"642 N. Kedzie Ave.
(41.8168782136, -87.6094366505)"
Humboldt Park,23,Supportive Housing,Humboldt Park Residences ,1152 N. Christiana Ave.,60647,773-276-5338 ext. 225,LUCHA,69,1201038.0588749289,1815487.7333030126,41.6484574114,-87.540123166,"1152 N. Christiana Ave.
(41.6484574114, -87.540123166)"
Humboldt Park,23,Multifamily,Bloomingdale Apartments,1745 N. Keystone Ave.,60639,773-276-2965,Village Green Management Co.,48,1154880.6034761437,1904286.6392746218,41.8931766425,-87.7066312185,"1745 N. Keystone Ave.
(41.8931766425, -87.7066312185)"
Humboldt Park,23,Multifamily,Spaulding Apartments,1750 N. Spaulding Ave.,60647,773-381-7400,G&A Management,111,1153731.4411072168,1907707.148117049,41.9025857989,-87.7107605283,"1750 N. Spaulding Ave.
(41.9025857989, -87.7107605283)"
Humboldt Park,23,Supportive/Males 18-24yrs.,Solid Ground Supportive Housing Program ,3507 W. North Ave.,60647,773-276-4900,"La Casa Norte, Inc.",35,1149146.6362585528,1911465.9388707278,41.9129903623,-87.7275039055,"3507 W. North Ave.
(41.9129903623, -87.7275039055)"
Humboldt Park,23,Multifamily,Madres Unidas scattered,3541 W. North Ave.,60647,773-276-5338 ext. 225,LUCHA,80,1154314.3195338387,1907834.5260998942,41.902923708,-87.7086160992,"3541 W. North Ave.
(41.902923708, -87.7086160992)"
Humboldt Park,23,Senior,LUCHA Affordable Units,3541 W. North Ave.,60647,312-276-5338,LUCHA,69,1152271.5245463105,1903132.1533014546,41.8899923467,-87.7036867659,"3541 W. North Ave.
(41.8899923467, -87.7036867659)"
Humboldt Park,23,Multifamily,La Estancia,3220 W. Division St.,60651,773-227-6332,Bickerdike Apartments,18,1153823.719226805,1911621.6283910712,41.9133256466,-87.7103171384,"3220 W. Division St.
(41.9133256466, -87.7103171384)"
Humboldt Park,23,Multifamily,La Estancia,3248 W. Division St.,60651,773-227-6332,Bickerdike Apartments,9,1152641.1153722291,1910367.063442813,41.9099064976,-87.7146950394,"3248 W. Division St.
(41.9099064976, -87.7146950394)"
Humboldt Park,23,Multifamily,Rosa Parks Apartments,3215 W. Huron St.,60624,773-227-6332,Bickerdike Apartments,6,,1910359.2407422592,41.9098923382,-87.7160529794,"3215 W. Huron St.
(41.9098923382, -87.7160529794)"
Humboldt Park,23,Multifamily,Rosa Parks Apartments,649 N. Sawyer Ave.,60624,773-227-6332,Bickerdike Apartments,6,,,,,
Humboldt Park,23,Multifamily,Rosa Parks Apartments,601 N. Drake Ave,60624,773-227-6332,Bickerdike Apartments,6,,,,,
Humboldt Park,23,Multifamily,Rosa Parks Apartments,521 N. St. Louis Ave.,60624,773-227-6332,Bickerdike Apartments,6,,,,,
Humboldt Park,23,Multifamily,Rosa Parks Apartments,526 N. St. Louis Ave.,60624,773-227-6332,Bickerdike Apartments,12,,,,,
Humboldt Park,23,Multifamily,Rosa Parks Apartments,532 N. Trumbull Ave.,60624,773-227-6332,Bickerdike Apartments,15,,,,,
Humboldt Park,23,Multifamily,Rosa Parks Apartments,541 N. Homan Ave.,60624,773-227-6332,Bickerdike Apartments,27,,,,,
Humboldt Park,23,Multifamily,Rosa Parks Apartments,3341 W. Ohio St.,60624,773-227-6332,Bickerdike Apartments,16,,,,,
Humboldt Park,23,Supportive/Veterans,Hope Manor Apartments,3053 W. Franklin Blvd.,60612,773-475-6703,Volunteers of America Illinois,50,1154584.6629430514,1907840.061069645,41.9029334898,-87.7076229238,"3053 W. Franklin Blvd.
(41.9029334898, -87.7076229238)"
Hyde Park,41,Multifamily,Hyde Park Apartments,5330 S. Harper Ave.,60615,773-955-2610,"DRE, Inc.",36,,,,,
Jefferson Park,11,Senior,Senior Suites of Jefferson Park,5400 N. Northwest Hwy.,60630,773-775-7333,Senior Lifestyle Corp.,73,1152271.5245463105,,,,
Kenwood,39,Multifamily,Jazz on the Boulevard (scattered sites) .,4657 S. Drexel Blvd,60653,312-660-1300,Heartland Housing,81,1187148.2339917526,1910359.2407422592,41.9098923382,-87.7160529794,"4657 S. Drexel Blvd
(41.9098923382, -87.7160529794)"
Kenwood,39,Multifamily,Drexel Preservation,837 E. 47th St.,60653,773-624-4901,MLG Management,39,1136226.971295093,1870068.2507340526,41.7985717841,-87.5892145402,"837 E. 47th St.
(41.7985717841, -87.5892145402)"
Lakeview ,6,Senior,Renaissance St. Luke Greenview Place,1501 W. Melrose St.,60657,773-525-1501,"RRG Development, Inc.",155,1183149.4551670926,1935211.1854214636,41.9783903918,-87.7743995653,"1501 W. Melrose St.
(41.9783903918, -87.7743995653)"
Lakeview ,6,Supportive,Buffet Place,3208 N. Shefield Ave.,60657,312-572-5272,Thresholds,51,1182801.3254214067,1874094.4100914083,41.8097139386,-87.6037533683,"3208 N. Shefield Ave.
(41.8097139386, -87.6037533683)"
Lakeview ,6,Senior LGBTQ,Town Hall Apartments,3600 N. Halsted St.,60613,773-472-6463,Heartland Houing Inc.,79,,1873991.9476500086,41.8094408765,-87.6050334227,"3600 N. Halsted St.
(41.8094408765, -87.6050334227)"
Logan Square,22,Multifamily,Rev. Daniel Alvarez Apts.,2451-57 N. Sacramento Ave.,60612,773-772-4063,Hispanic Housing Dev. Corp.,96,,,,,
Logan Square,22,Senior,Renaissance West,2517 W. Fullerton Ave.,60647,773-862-2500,Renaissance Realty Group Inc.,41,1165704.8480373912,,,,
Logan Square,22,Multifamily,Zapata Apartments,3230 W. Armitage Ave,60647,773-227-6332,Bickerdike Apartments,100,1155995.815179278,1921625.293870648,41.9405311557,-87.6663826053,"3230 W. Armitage Ave
(41.9405311557, -87.6663826053)"
Logan Square,22,Multifamily,Zapata Apartments,3503 W. Armitage Ave,60647,773-227-6332,Bickerdike Apartments,12,1159142.5632841722,1916357.8444731145,41.926278629,-87.7022092387,"3503 W. Armitage Ave
(41.926278629, -87.7022092387)"
Logan Square,22,Multifamily,Zapata Apartments,1955 N. St. Louis Ave.,60647,773-227-6332,Bickerdike Apartments,3,1154370.984515238,1915828.5607318971,41.9247620985,-87.6906609777,"1955 N. St. Louis Ave.
(41.9247620985, -87.6906609777)"
Logan Square,22,Multifamily,Zapata Apartments,3734 W. Cortland St.,60647,773-227-6332,Bickerdike Apartments,30,1152897.6344778591,1913144.8796982756,41.9174946519,-87.7082658078,"3734 W. Cortland St.
(41.9174946519, -87.7082658078)"
Loop,32,Multifamily,Randolph Tower City Apartments (studios only),188 W. Randolph St.,60601,312-291-8679,Village Green Management Co.,16,1152978.3561575606,1913030.1929008735,41.9172092811,-87.713682006,"188 W. Randolph St.
(41.9172092811, -87.713682006)"
Lower West Side,31,Multifamily,Casa Puebla,2014 S. Racine Ave.,60608,312-666-1323,The Resurrection Project,63,1151016.2570625048,1913014.533058195,41.9171647082,-87.7133858481,"2014 S. Racine Ave.
(41.9171647082, -87.7133858481)"
Lower West Side,31,Multifamily,Casa Guerrero,963 W Cullerton St.,60608,312-666-1323,The Resurrection Project,52,1174747.57210376,1912402.356670404,41.9155235348,-87.720610728,"963 W Cullerton St.
(41.9155235348, -87.720610728)"
Lower West Side,31,Multifamily,Casa Oaxaca,1714 W. 19th St.,60608,312-666-1323,The Resurrection Project,25,1168646.2965818448,1901307.2524319694,41.884579663,-87.6337568335,"1714 W. 19th St.
(41.884579663, -87.6337568335)"
Lower West Side,31,Senior,Casa Maravilla,2021 S. Morgan St.,60608,312-666-1323,The Resurrection Project,5,1170238.8058330964,1890365.9909551519,41.8546902787,-87.6564782084,"2021 S. Morgan St.
(41.8546902787, -87.6564782084)"
Lower West Side,31,Multifamily,Casa Chiapas,1712 W. 17th St.,60608,312-666-1323,The Resurrection Project,72,1165132.942698977,1890555.1686823391,41.8551748018,-87.6506275348,"1712 W. 17th St.
(41.8551748018, -87.6506275348)"
Lower West Side,31,Multifamily,Casa Morelos,2015 S. Morgan St.,60608,312-666-1323,The Resurrection Project,4,1170051.208277346,1890827.8270715745,41.8560328733,-87.6693605655,"2015 S. Morgan St.
(41.8560328733, -87.6693605655)"
Lower West Side,31,Multifamily,Casa Tabasco ,2014 S. Racine Ave.,60608,312-850-1935,The Resurrection Project,45,1165119.3725775955,1890349.586619211,41.8546147585,-87.6513220922,"2014 S. Racine Ave.
(41.8546147585, -87.6513220922)"
Lower West Side,31,Multifamily,Casa Monterrey,967 W. 19th St.,60608,312-666-1323,The Resurrection Project,4,1168646.2965818448,1890417.7841083359,41.8548019389,-87.6513269744,"967 W. 19th St.
(41.8548019389, -87.6513269744)"
Montclare,18,Senior,The Montclare Senior Residences ,6650 W. Belden Ave.,60707,773-237-3831,Pacific Management Inc.,7,1168646.2965818448,1890365.9909551519,41.8546902787,-87.6564782084,"6650 W. Belden Ave.
(41.8546902787, -87.6564782084)"
Montclare,18,ARO,TBD,"6602,6614 W. Diversey Ave.",60707,708-867-3799,Zitella Development ,3,1170202.3560892306,1890365.9909551519,41.8546902787,-87.6564782084,"6602,6614 W. Diversey Ave.
(41.8546902787, -87.6564782084)"
Near North Side,8,Multifamily,North Town Village,1311 N. Halsted St.,60610,312-944-9488,Holsten Real Estate Dev. Corp.,317,,1891062.3128613762,41.8565672424,-87.6507465232,"1311 N. Halsted St.
(41.8565672424, -87.6507465232)"
Near North Side,8,Multifamily,Parkside-I Rental,545 W. Division St.,60610,312-944-8500,Holsten Management Corp.,116,1131547.9315415001,,,,
Near North Side,8,Multifamily,Parkside of Old Town Phase IIA,544 W. Oak St.,60610,312-640-6032,Holsten Real Estate Dev. Corp.,111,1170813.0619101573,1914379.4156676917,41.9213082228,-87.792090958,"544 W. Oak St.
(41.9213082228, -87.792090958)"
Near North Side,8,Multifamily,North Town Village II,1311 N. Halsted St.,60642,312-944-9488,Holsten Real Estate Dev. Corp.,112,1172154.2889429512,1908876.8619034237,41.9054382467,-87.6479827434,"1311 N. Halsted St.
(41.9054382467, -87.6479827434)"
Near North Side,8,Supportive Housing,The Midwest/Carroll Park Apartments,1333 N. Kingsbury St.,60622,312-337-5339,Holsten Real Estate Dev. Corp.,40,1172196.0320095103,1908220.9975412255,41.9036090085,-87.6430753954,"1333 N. Kingsbury St.
(41.9036090085, -87.6430753954)"
Near South Side,33,Senior,Senior Suites of Central Station,1400 S. Indiana Ave.,60605,312-913-9333,Senior Lifestyle Corp.,276,1170813.0619101573,1907097.5331471777,41.9005252379,-87.6429552753,"1400 S. Indiana Ave.
(41.9005252379, -87.6429552753)"
Near South Side,33,Supportive Housing,The Studios,1801 S. Wabash St.,60616,312-326-5200,East Lake Management Co.,96,1170359.4541896505,1908876.8619034237,41.9054382467,-87.6479827434,"1801 S. Wabash St.
(41.9054382467, -87.6479827434)"
Near South Side,33,Multifamily,Hillard Homes Phase I,2030 S. State St.,60616,312-225-7610,Holsten Real Estate Dev. Corp.,170,1177842.0936783925,1908979.9292605727,41.9057310023,-87.6496459664,"2030 S. State St.
(41.9057310023, -87.6496459664)"
Near South Side,33,Senior,Hilliard Homes Phase I,30 W. Cermak Road,60616,312-326-1455,Holsten Real Estate Dev. Corp.,151,1177086.6977832485,1893842.680241957,41.8640266649,-87.622620427,"30 W. Cermak Road
(41.8640266649, -87.622620427)"
Near South Side,33,Multifamily,Hilliard Homes Phase II,2031 S. Clark St.,60616,312-326-1455,Holsten Management Corp.,176,1176604.642296739,1891564.720194449,41.857792921,-87.6254623688,"2031 S. Clark St.
(41.857792921, -87.6254623688)"
Near South Side,33,Senior,Hilliard Homes Phase II,30 W. Cermak Road,60616,312-326-1466,Holsten Management Corp.,151,1176346.441206223,1890373.5034965982,41.854535033,-87.6272677388,"30 W. Cermak Road
(41.854535033, -87.6272677388)"
Near South Side,33,Senior,G&A Senior Residences at Eastgate Village,300 E. 26th Street,60616,773-381-7400,Eastgate Village Partners LP,127,1161390.3474516731,1889816.861403971,41.8530133902,-87.628232211,"300 E. 26th Street
(41.8530133902, -87.628232211)"
Near West Side,28,Multifamily,Westhaven Park Phase IIA,2237 W. Maypole Ave.,60612,312-455-0009,Interstate Realty Management Co.,92,1175862.8657496881,1900920.9664023356,41.8838079875,-87.6828170157,"2237 W. Maypole Ave.
(41.8838079875, -87.6828170157)"
Near West Side,28,Multifamily,Westhaven Park Phase IIB,110 N. Wood St.,60612,312-491-1117,Interstate Realty Management Co.,176,1163284.2573568304,1890322.361118107,41.8544114001,-87.6299918764,"110 N. Wood St.
(41.8544114001, -87.6299918764)"
Near West Side,28,Multifamily,Westhaven Park IIC ,1939 W. Lake St.,60612,312-455-0009,Interstate Realty Management Co.,42,1176346.441206223,1901334.7365981778,41.8849038015,-87.6758507682,"1939 W. Lake St.
(41.8849038015, -87.6758507682)"
Near West Side,28,Multifamily,Roosevelt Square Phase I /ABLA Rental,1222 W. Roosevelt Road,60607,312-948-0116,Related Management Co. LP,105,1164349.325312463,1889816.861403971,41.8530133902,-87.628232211,"1222 W. Roosevelt Road
(41.8530133902, -87.628232211)"
Near West Side,28,Senior,Roosevelt Place,1401 W. Roosevelt Road,60608,312-733-2436,"East Lake Management Group, Inc.",181,1178501.1617860266,1900851.1201508911,41.8835542602,-87.6719533672,"1401 W. Roosevelt Road
(41.8835542602, -87.6719533672)"
Near West Side,28,Senior,Loomis Court,1314 W. 15th St.,60608,312-850-4128,CHA,68,1168285.1327187584,1887204.439847358,41.8457959044,-87.6204033747,"1314 W. 15th St.
(41.8457959044, -87.6204033747)"
Near West Side,28,Multifamily,Newberry Park Apartments,1355 S. Blue Island Ave.,60608,312-563-0099,AIMCO,124,1167191.3960007455,1894881.9846013894,41.8670903488,-87.6576733813,"1355 S. Blue Island Ave.
(41.8670903488, -87.6576733813)"
Near West Side,28,Multifamily,Near West Side Apartments,216 S. Hoyne Ave.,60612,312-738-2280,Baker-Simmons Apartments,84,1167767.3949669574,1894769.7970191787,41.866806049,-87.6616918421,"216 S. Hoyne Ave.
(41.866806049, -87.6616918421)"
Near West Side,28,Multifamily,St. Andrew's Court,50 N. Hoyne Ave.,60612,312-226-7620,St. Andrew's Court LP,15,1168817.2778686853,1892902.5811651663,41.8616698673,-87.659631083,"50 N. Hoyne Ave.
(41.8616698673, -87.659631083)"
Near West Side,28,Multifamily,Jackson Square West End,2425 W. Adams St.,60612,312-492-6645,East Lake Management Co.,115,1162403.5672647401,1893757.841159408,41.8639940988,-87.6557523872,"2425 W. Adams St.
(41.8639940988, -87.6557523872)"
Near West Side,28,Supportive,Harvest Commons,1519 W. Warren Blvd.,60607,312-660-1354,Heartland Houisng Inc.,89,,1898857.8894641905,41.8781255904,-87.6791541271,"1519 W. Warren Blvd.
(41.8781255904, -87.6791541271)"
New City,61,Multifamily,Senior Suites of New City,4845 S. Western Blvd.,60609,773-523-9333,Senior Lifestyle Corp.,115,,,,,
New City,61,Senior,West Haven Homes,850 W. Garfield Blvd.,60609,773-536-3057,"Universal Management Service, Inc.",110,,,,,
New City,61,Senior,Goldblatt's Senior Living,1615 W. 47th St.,60609,877-882-1495,BMA Management Ltd.,101,,,,,
North Center,5,Senior,North Center Senior Apartments,2324 W. Irving Park Road,60618,773-478-8900,"Metroplex, Inc.",60,1161385.3739578223,,,,
North Lawndale,29,Senior,Roosevelt Towers,3440 W. Roosevelt Road,60624,773-265-6961,"East Lake Management Group, Inc.",104,1171337.269424133,1872314.958613434,41.8053101773,-87.6836299382,"3440 W. Roosevelt Road
(41.8053101773, -87.6836299382)"
North Lawndale,29,Senior,Tabernacle Apartments,3836 W. Cermak Road,60623,773-762-3389,Lawndale Christian Residential Svcs.,126,1160064.9005808276,1868414.146219006,41.7943936951,-87.6472446717,"3836 W. Cermak Road
(41.7943936951, -87.6472446717)"
North Lawndale,29,Multifamily,Lazarus Apartments,1859 S. Pulaski Ave.,60623,773-762-3389,Lawndale Christian Residential Svcs.,26,1153440.1241936614,1926543.1808314822,41.9541446663,-87.6869750499,"1859 S. Pulaski Ave.
(41.9541446663, -87.6869750499)"
North Lawndale,29,Multifamily,Dicksons Estates Apartments,1129 S. Sacramento Ave.,60612,773-638-0386,Dickson Estates Apartments,48,1150987.190267074,1894532.7749594802,41.8664397713,-87.7121808603,"1129 S. Sacramento Ave.
(41.8664397713, -87.7121808603)"
North Lawndale,29,Multifamily,Praise Apartments,1859 S. Pulaski Road,60623,773-762-3389,Lawndale Christian Residential Svcs.,11,1150056.0629614652,1889144.7486111482,41.8517027368,-87.7213268803,"1859 S. Pulaski Road
(41.8517027368, -87.7213268803)"
North Lawndale,29,Multifamily,Fountain View Apartments,1331 S. Independence Blvd.,60623,773-762-3389,Lawndale Christian Residential Svcs.,32,1156574.0087372132,1890463.503159668,41.8553397217,-87.7247100763,"1331 S. Independence Blvd.
(41.8553397217, -87.7247100763)"
North Lawndale,29,Multifamily,Lawndale Restoration II Apartments,3200 block of West Douglas Blvd.,60613,312-337-5339,Holsten Management Corp.,45,1150056.0629614652,1894894.5102467015,41.8673696101,-87.7006662254,"3200 block of West Douglas Blvd.
(41.8673696101, -87.7006662254)"
North Lawndale,29,Multifamily,Dr. King Apartments,1550 S. Hamlin Ave.,60623,773-776-7233,Lawndale Christian Residential Svcs.,170,1151511.1578080195,1890463.503159668,41.8553397217,-87.7247100763,"1550 S. Hamlin Ave.
(41.8553397217, -87.7247100763)"
North Lawndale,29,Supportive/HIV/AIDS,Hope House,1251 S. Sawyer Ave.,60623,773-935-4663,"AIDSCare, Inc.",80,,1893415.133168019,41.8634109156,-87.7192916814,"1251 S. Sawyer Ave.
(41.8634109156, -87.7192916814)"
North Lawndale,29,Supportive/Youth/Kinship Families,Sankofa House,4041 W. Roosevelt Road,60624,773-257-8800,Interfaith Housing Corp.,32,1151263.6234547235,,,,
North Lawndale,29,Supportive Housing,Independence Apartments,927 S. Independence Blvd.,60624,773-549-8300,Realty & Mortgage Co.,58,1154939.0234203928,1891891.9301081835,41.8592359223,-87.720240298,"927 S. Independence Blvd.
(41.8592359223, -87.720240298)"
North Lawndale,29,Multifamily,Dicksons Estates Apartments,1129 S. Sacramento Ave.,60612,773-638-0386,Dickson Estates Apartments,42,1149479.8229627917,1893956.6797284372,41.8648290106,-87.7066936632,"1129 S. Sacramento Ave.
(41.8648290106, -87.7066936632)"
North Lawndale,29,Multifamily,Renaissance Place Apartments,3128 W. Douglas Blvd.,60623,773-762-3389,Lawndale Christian Residential Svcs.,11,1151446.0748254498,1894358.7814178746,41.8660400256,-87.7267241437,"3128 W. Douglas Blvd.
(41.8660400256, -87.7267241437)"
North Lawndale,29,Multifamily,Park Douglas,Ogden/California/Talman,60608,773-893-4800,Interstate Realty Management Co.,54,1156574.0087372132,1895529.681933545,41.8692147569,-87.7194750917,"Ogden/California/Talman
(41.8692147569, -87.7194750917)"
North Park,13,Senior,North Park Village Apartments,5801 N. Pulaski Road,60646,773-478-6890,EHDOC,137,1155600.259703129,1894894.5102467015,41.8673696101,-87.7006662254,"5801 N. Pulaski Road
(41.8673696101, -87.7006662254)"
North Park,13,Senior,Edward M. Marx Apartments,5801 N. Pulaski Road,60646,773-583-4182,EHDOC,180,,1893326.919926386,41.8630876114,-87.7042831894,"5801 N. Pulaski Road
(41.8630876114, -87.7042831894)"
Norwood Park,,Senior,Senior Suites of Norwood Park,5700 N. Harlem Ave.,60631,888-339-2315,Senior Lifestyle ,84,,,,,
Oakland,36,Multifamily,Oakwood Shores 1A,37th/Ellis,60653,773-373-1300,"The Community Builders, Inc.",40,1184161.775787701,1938044.2365664502,41.9859315142,-87.72836921,"37th/Ellis
(41.9859315142, -87.72836921)"
Oakland,36,Multifamily,Oakwood Shores 1B,37th/Cottage,60653,773-373-1300,"The Community Builders, Inc.",163,1181955.520136621,1877771.78885836,41.8197812878,-87.5999252673,"37th/Cottage
(41.8197812878, -87.5999252673)"
Oakland,36,Multifamily,Oakwood Shores 2A,37th/Langley,60653,773-373-1300,"The Community Builders, Inc.",162,,1880134.9315073378,41.826317314,-87.6079454471,"37th/Langley
(41.826317314, -87.6079454471)"
Oakland,36,Multifamily,Oakwood Shores 2B 1,38th/Vincennes,60653,773-373-1300,"The Community Builders, Inc.",199,,,,,
Oakland,36,Multifamily,Oakwood Shores Senior Apartments,3750 S. Cottage Grove Ave.,60653,773-373-1300,"The Community Builders, Inc.",75,,,,,
Oakland,36,Multifamily,Lake Park Crescent,1061 E. 41st Place,60653,773-268-0200,"Draper and Kramer, Inc.",32,1148723.5010362945,,,,
Oakland,36,Senior,Oakwood Shores Terrace,3755 S. Cottage Grove Ave.,60653,773-373-1300,"The Community Builders, Inc.",148,1148723.5010362945,1938044.2365664502,41.9859315142,-87.72836921,"3755 S. Cottage Grove Ave.
(41.9859315142, -87.72836921)"
Pullman,50,Multifamily,Pullman Wheelworks,901 E. 104th St.,60628,773-785-1300,Mercy Housing,210,,,,,
Pullman,50,Senior,Pullman Suites,15 E. 112th Place,60628,773-840-3993,Triangle & Assoc.,60,,,,,
Riverdale,54,Senior,Concordia Apartments,13037 S. Daniel Dr.,60627,773-995-5200,"DRE, Inc.",75,,,,,
Rogers Park,1,Supportive Housing,Wayne Street Apartments,6808 N. Wayne Ave.,60626,773-572-5272,The Thresholds,297,1181862.3293714053,,,,
Rogers Park,1,Senior,Morse Senior Apartments,6928 N. Wayne Ave.,60626,312-602-6207,Morse Urban Dev.,44,1180294.2738928266,1880153.551343028,41.8263705668,-87.6082867641,"6928 N. Wayne Ave.
(41.8263705668, -87.6082867641)"
Rogers Park,1,Senior,James Sneider Apartments,7450 N. Rogers Ave.,60626,773-743-3699,Hispanic Housing Dev. Corp.,57,1165865.3477642245,1818758.3719629094,41.6579312533,-87.6159174009,"7450 N. Rogers Ave.
(41.6579312533, -87.6159174009)"
Rogers Park,1,Senior,Wayne Senior Housing,6928 N. Wayne Ave.,60626,773-274-0177,CIG Management,119,1165843.8983617804,1945401.688805442,42.0057709728,-87.6651110904,"6928 N. Wayne Ave.
(42.0057709728, -87.6651110904)"
Roseland,49,Supportive Housing,Wentworth Commons,11045 S. Wentworth Ave.,60628,773-568-7804,Mercy Housing Lakefront,50,1163640.7090683652,1946058.5134415056,42.0075737709,-87.6651711448,"11045 S. Wentworth Ave.
(42.0075737709, -87.6651711448)"
Roseland,49,Multifamily,Roseland Ridge Apartments,10513 S. Michigan Ave.,60628,773-341-3158,NHS Redevelopment Corp.,51,1165843.8983617804,1949531.1714154778,42.0171497111,-87.6731785733,"10513 S. Michigan Ave.
(42.0171497111, -87.6731785733)"
Roseland,49,Supportive Housing,Holland Apartments,240 W. 107th Place,60628,773-568-3031,Mercy Housing,40,1176951.4016152027,1946058.5134415056,42.0075737709,-87.6651711448,"240 W. 107th Place
(42.0075737709, -87.6651711448)"
Roseland,49,Senior,Victory Center of Roseland,10450 S. Michigan Ave.,60628,773-468-6400,Pathway Senior Living ,81,1178893.6986119405,1831516.0158972335,41.6930159121,-87.6277673462,"10450 S. Michigan Ave.
(41.6930159121, -87.6277673462)"
Roseland,49,Senior,Roseland Ridge Senior Apartments,10400-30 S. Michigan Ave.,60628,773-548-8301,Neighborhood Housing Services,124,1176448.51184587,1835198.53356157,41.7030773785,-87.6205446771,"10400-30 S. Michigan Ave.
(41.7030773785, -87.6205446771)"
Roseland,,Inter-generational,Roseland Village Grand-Family Apartments,63 E. 104th St.,60628,773-468-1901,Mercy Housing,10,1178829.4007118938,1833690.9859369479,41.698995638,-87.6295434504,"63 E. 104th St.
(41.698995638, -87.6295434504)"
South Chicago,46,Senior,Victory Center of South Chicago,3251 E. 92nd St.,60617,773-449-2600,Pathway Senior Living ,60,,1835494.4053217333,41.7038907515,-87.6207711553,"3251 E. 92nd St.
(41.7038907515, -87.6207711553)"
South Chicago,46,Supportive Housing,Bettendorf Place SRO,8425 S. Saginaw Ave.,60617,773-359-4902,Alexian Brothers Bonaventure House,112,1178859.4647864362,,,,
South Chicago,46,Senior,Victory Center of South Chicago,9200 S. Burley Ave.,60617,773-449-2600,Pathway Senior Living ,23,1199523.085420141,1836023.490738764,41.7053419518,-87.6206450334,"9200 S. Burley Ave.
(41.7053419518, -87.6206450334)"
South Chicago,46,Multifamily,Casa Kirk,3200 E. 92nd St.,60617,773-734-2884,Interfaith Housing Corp.,112,1195337.9188801304,1844538.4563788343,41.7282135464,-87.5446927939,"3200 E. 92nd St.
(41.7282135464, -87.5446927939)"
South Lawndale,30,Multifamily,Casa Sor Juana,2700 S. Drake Ave.,60608,312-850-1935,The Resurrection Project,29,1199232.9011781784,1849509.6505140746,41.7419591238,-87.5598598952,"2700 S. Drake Ave.
(41.7419591238, -87.5598598952)"
South Shore,43,Multifamily,Highlands Tudor Manor,7018 S. Cregier Ave.,60649,773-667-1940,Related Management Co. LP,18,1198941.1027295904,1844538.0998224837,41.7282198588,-87.5457557823,"7018 S. Cregier Ave.
(41.7282198588, -87.5457557823)"
South Shore,43,Senior,Senior Suites of Rainbow Beach,2804 E. 77th Place,60649,773-374-5333,Senior Lifestyle Corp.,87,1153098.3021828188,1844604.277047114,41.7284087757,-87.546822457,"2804 E. 77th Place
(41.7284087757, -87.546822457)"
South Shore,43,Senior,Rainbow's End,7538 S. Kingston Ave.,60649,773-768-5402,"Urban Property Advisors, LLC",84,1189376.953607129,1885797.7278244356,41.842476558,-87.713667149,"7538 S. Kingston Ave.
(41.842476558, -87.713667149)"
South Shore,43,Senior,Senior Suites of South Shore,2355 E. 67th St.,60649,773-324-2333,Senior Lifestyle Corp.,55,1196631.9120805236,1858721.452356422,41.7673820796,-87.5814053802,"2355 E. 67th St.
(41.7673820796, -87.5814053802)"
Uptown,3,Supportive Housing,Major Jenkins Apartments,5012 N. Winthrop Ave.,60640,773-506-3486,Mercy Housing,96,1194467.2799732804,1854159.4837005038,41.7546866025,-87.5549647165,"5012 N. Winthrop Ave.
(41.7546866025, -87.5549647165)"
Uptown,3,Multifamily,Uptown Preservation Apartments,900 W. Windsor Ave.,60640,773-286-5400,Leasing & Management Co. Inc.,160,1193073.3229901514,1855300.5607110243,41.7578712724,-87.5628598349,"900 W. Windsor Ave.
(41.7578712724, -87.5628598349)"
Uptown,3,Multifamily,Uptown Preservation Apartments,4431 N. Clifton Ave.,60640,773-286-5400,Leasing & Management Co. Inc.,18,1167919.6152384933,1860960.1627823284,41.7734357917,-87.567783821,"4431 N. Clifton Ave.
(41.7734357917, -87.567783821)"
Uptown,3,Multifamily,Uptown Preservation Apartments,927 W. Wilson Ave.,60640,773-286-5400,Leasing & Management Co. Inc.,18,1169410.7238433592,1933730.4380171197,41.9737005572,-87.6578919355,"927 W. Wilson Ave.
(41.9737005572, -87.6578919355)"
Uptown,3,Multifamily,Malden Arms Apartments,4727 N. Malden St.,60640,773-334-2164,Mercy Housing,41,1167869.5114808967,1930422.9420342208,41.9645923009,-87.6525054366,"4727 N. Malden St.
(41.9645923009, -87.6525054366)"
Uptown,3,Multifamily,Sunnyside Kenmore Apartments,847-49 W. Sunnyside Ave.,60640,773-769-3116,"Metroplex, Inc.",83,1169143.7726304997,1929704.2639931454,41.9626536881,-87.6581928459,"847-49 W. Sunnyside Ave.
(41.9626536881, -87.6581928459)"
Uptown,3,Multifamily,Sunnyside Kenmore Apartments,4130 N. Kenmore Ave.,60640,773-769-3116,"Metroplex, Inc.",13,1166646.8377223643,1930693.0740830055,41.9653393681,-87.653479057,"4130 N. Kenmore Ave.
(41.9653393681, -87.653479057)"
Uptown,3,Senior,Wilson Yard Senior Apartments,1032 W. Montrose Ave,60613,866-227-0438,Holsten Real Estate Dev. Corp.,13,1169606.6776593295,1931640.3450981718,41.967992713,-87.6626324087,"1032 W. Montrose Ave
(41.967992713, -87.6626324087)"
Uptown,3,Senior,Kenmore Senior Housing,5040 N. Kenmore Ave.,60640,773-769-3006,The Habitat Co.,98,1168380.0304702325,1930039.3360946288,41.9635353994,-87.6517961908,"5040 N. Kenmore Ave.
(41.9635353994, -87.6517961908)"
Uptown,3,Supportive Housing,Harold Washington Apartments,4946 N. Sheridan Road ,60640,312-447-4621,Mercy Housing,100,1168438.959159473,1927860.1940091166,41.9575824413,-87.6563694357,"4946 N. Sheridan Road
(41.9575824413, -87.6563694357)"
Uptown,3,Multifamily,850 Eastwood,850 W. Eastwood Ave.,60640,773-275-6877,Mercy Housing,69,1168292.8321203333,1929421.6495916455,41.9618658533,-87.6561074284,"850 W. Eastwood Ave.
(41.9618658533, -87.6561074284)"
Uptown,3,Senior,Ruth Shriman House,4040 N. Sheridan Road,60613,773-665-2210,Interfaith Housing Corp.,231,1168689.9333343573,1934023.2899432692,41.9744960685,-87.6565110221,"4040 N. Sheridan Road
(41.9744960685, -87.6565110221)"
Uptown,,ARO,Somerset Place Apartments,5009 N. Sheridan Road,60640,317-596-2168,Zidan Management Group,16,,1933461.5872546497,41.9729461221,-87.6550671247,"5009 N. Sheridan Road
(41.9729461221, -87.6550671247)"
Washington Heights,73,Senior,Senior Suites of Washington Heights,848 W. 103rd St.,60643,773-233-1333,Senior Lifestyle Corp.,82,1169619.1131885468,,,,
Washington Heights,73,Senior,Brainerd Senior Center,8915 S. Loomis St.,60620,773-429-1501,Realty & Mortgage Co.,60,1172263.7266894968,1931130.1859241405,41.9665284532,-87.6517185639,"8915 S. Loomis St.
(41.9665284532, -87.6517185639)"
Washington Park,40,People with Disabilities,Urbanite Apartments,5441 S. Michigan Ave.,60615,773-285-3341,Assoc. of Chicago Day School,85,1168832.7496225224,1836577.477182002,41.7070094274,-87.6447816603,"5441 S. Michigan Ave.
(41.7070094274, -87.6447816603)"
Washington Park,40,People with Disabilities,"Brand New Beginnings, Inc.",5801 S. Michigan Ave.,60637,773-955-5780,Harriet Tubman NFP,25,1168602.533575851,1927172.3028950733,41.9556850173,-87.6547251281,"5801 S. Michigan Ave.
(41.9556850173, -87.6547251281)"
Washington Park,40,Multifamily,St. Edmund's Manor,5947 S. Indiana Ave.,60653,773-548-8924,St. Edmund's Manor Ltd.,24,1178127.357872784,1845525.7983164364,41.7316445313,-87.6579318552,"5947 S. Indiana Ave.
(41.7316445313, -87.6579318552)"
Washington Park,40,Multifamily,St. Edmund's Village,6253 S. Michigan Ave.,60653,773-493-2411,St. Edmund's Village LP,31,1178188.1637615676,1868790.5953475153,41.7952753031,-87.6223343775,"6253 S. Michigan Ave.
(41.7952753031, -87.6223343775)"
Washington Park,40,Multifamily,Michigan Plaza (St. Edmund's Plaza),5701 S. Michigan Ave.,60653,773-548-8924,Michigan Plaza LP,230,1178662.0563776551,1866559.6547361617,41.7891520073,-87.6221790762,"5701 S. Michigan Ave.
(41.7891520073, -87.6221790762)"
Washington Park,40,Multifamily,Harriett Tubman Apartments,5751-59 S. Michigan Ave.,60637,773-752-9760,Brand New Beginnings Inc.,65,1178307.6971999898,1865432.9159510299,41.7860493567,-87.6204757369,"5751-59 S. Michigan Ave.
(41.7860493567, -87.6204757369)"
Washington Park,40,Supportive/Kinship Families,Coppin House,325-43 E. 55th Place,60637,773-752-2331,Interfaith Housing Corp.,28,1178170.3707827867,1863372.5987250379,41.7804036945,-87.6218374892,"325-43 E. 55th Place
(41.7804036945, -87.6218374892)"
Washington Park,40,Multifamily,St. Edmund's Commons,110 E. 60th St.,60637,773-420-3328,St. Edmund's Redevelopment Corp.,54,1178184.0504477206,1867225.8041226729,41.7909803898,-87.6222241137,"110 E. 60th St.
(41.7909803898, -87.6222241137)"
Washington Park,40,Senior HUD 202,St. Edmund's Corners,5556 S. Michigan Ave.,60637,773-667-7583,St. Edmund's Redevelopment Corp.,53,1179276.0774989587,1866708.8159741443,41.7895614137,-87.6221896343,"5556 S. Michigan Ave.
(41.7895614137, -87.6221896343)"
Washington Park,40,Senior,TRC Senior Village I,346 E. 53rd St.,60615,773-924-9270,The Renaissance Collaborative,35,,1868251.4604524123,41.7937697184,-87.6181384856,"346 E. 53rd St.
(41.7937697184, -87.6181384856)"
West Englewood,67,Multifamily,Clara Temple Hampton Residence,1656 W. 63rd St.,60636,773-778-2884,West Englewood Dev. Org.,71,1178070.4429785577,,,,
West Englewood,67,Multifamily,Clara's Village,2115 W. 63rd St,60636,773-434-4929,Interfaith Housing Corp.,13,1179447.490115856,1867951.6767417216,41.7929745219,-87.6225685185,"2115 W. 63rd St
(41.7929745219, -87.6225685185)"
West Garfield Park,27,Supportive Housing,The Rebecca Johnson Apartments,2822 W. Jackson Blvd.,60612,773-638-6393,Deborah's Place Ltd.,52,1166121.3452266525,1869994.8980902864,41.7985499558,-87.6174566934,"2822 W. Jackson Blvd.
(41.7985499558, -87.6174566934)"
West Lawn,65,Seniors,Senior Suites of Midway Village,6800 S. Keating Ave.,60629,888-339-2315,Senior Lifestyle Corp.,89,1163257.2027996134,1862956.6860697763,41.779530386,-87.6665265092,"6800 S. Keating Ave.
(41.779530386, -87.6665265092)"
West Pullman ,53,Supportive Housing,Hancock House,12045 S. Emerald Ave.,60628,773-568-3000,Source Works Development,90,,1862800.706640397,41.7791628235,-87.6770311971,"12045 S. Emerald Ave.
(41.7791628235, -87.6770311971)"
West Pullman ,53,Senior,All Saints Senior Residence,11701 S. State St.,60628,312-655-7440,Catholic Charities Housing Devp.,42,1157527.9754137222,,,,
West Ridge,2,Senior,G & A Senior Residences at Ravenswood,1818 W. Peterson Ave.,60660,773-381-7400,Eastgate Village Senior Corp.,89,,1898606.336367213,41.8775358858,-87.6970630483,"1818 W. Peterson Ave.
(41.8775358858, -87.6970630483)"
West Ridge,2,Senior,West Ridge Senior Apartments,6142 N. California Ave.,60659,773-381-7400,West Ridge Senior Corp.,117,1173523.536248522,,,,
West Ridge,2,Senior,Lincoln Village Senior Apartments,6057 N. Lincoln Ave.,60659,773-338-5900,Perlmark Realty Management,99,1162949.471947985,1824810.0626359796,41.6746900779,-87.6405148423,"6057 N. Lincoln Ave.
(41.6746900779, -87.6405148423)"
West Ridge,2,ARO,"5822 North Western, LLC",5822 N. Western Ave.,60659,773-572-2755,Chicago Apartment Finders,2,,1939941.1893128548,41.9908491577,-87.6759930884,"5822 N. Western Ave.
(41.9908491577, -87.6759930884)"
West Town,24,Supportive Housing,Wicker Park Renaissance,1527-31 N. Wicker Park Ave.,60622,773-278-8602,"RRG Development, Inc.",102,1156512.510358117,,,,
West Town,24,Multifamily,Paseo Boricua Apartments,1154 N. Campbell St.,60622,312-602-6500,Hispanic Housing Dev. Corp.,61,1153825.546749503,1940837.410770179,41.9934415657,-87.6996454249,"1154 N. Campbell St.
(41.9934415657, -87.6996454249)"
West Town,24,Multifamily,La Estancia,2753 W. Division St.,60622,773-227-6332,Bickerdike Redevelopment Corp.,59,1162934.3186359087,1940243.3793156522,41.9918656495,-87.7095450826,"2753 W. Division St.
(41.9918656495, -87.7095450826)"
West Town,24,Multifamily,North and Talman Family Apts.,2654 W. North Ave.,60647,773-486-7410,Hispanic Housing Dev. Corp.,30,1159482.2925512826,1910028.9463462443,41.9087687359,-87.6768915182,"2654 W. North Ave.
(41.9087687359, -87.6768915182)"
West Town,24,Senior,North & Talman Elderly Apts.,1600 N. Talman Ave.,60647,773-486-7410,Hispanic Housing Dev. Corp.,24,1157605.9794619114,1907856.1047262773,41.902878079,-87.6896325219,"1600 N. Talman Ave.
(41.902878079, -87.6896325219)"
West Town,24,Multifamily,Boulevard Court Family Housing,1723-33 N. Humboldt Blvd.,60647,773-486-7410,Hispanic Housing Dev. Corp.,52,1158184.4012101176,1907820.4806240404,41.902818751,-87.6965255554,"1723-33 N. Humboldt Blvd.
(41.902818751, -87.6965255554)"
West Town ,24,Multifamily,North & Talman Phase III,2656 W. North Ave.,60647,773-602-2888,Hispanic Housing Dev. Corp.,18,1158416.9732462608,1910570.9607547983,41.9103544922,-87.6943256397,"2656 W. North Ave.
(41.9103544922, -87.6943256397)"
West Town,24,Multifamily,Borinquen Bella Apartments,"1414,1451 N. Washtenaw Ave.",60622,"773-276-5338, ext. 225",LUCHA,23,1156143.3102157223,1910568.8103786097,41.9103438337,-87.6934713169,"1414,1451 N. Washtenaw Ave.
(41.9103438337, -87.6934713169)"
West Town,24,Multifamily,Borinquen Bella Apartments,"1318,1456 N. Rockwell Ave.",60622,"773-276-5338, ext. 225",LUCHA,24,,1911450.1899551263,41.9128086528,-87.701800063,"1318,1456 N. Rockwell Ave.
(41.9128086528, -87.701800063)"
West Town,24,ARO,1611 West Division,1611 W. Division St.,60622,773-661-5500,M. Fishman & Co.,10,,,,,
Woodlawn,42,Multifamily,Woodlawn-Michigan Development,6446 S. Kenwood Ave.,60637,312-226-2200,Wolcott Real Property LLC,33,,,,,
Woodlawn,42,Multifamily,Eddie Mae & Alex Johnson Apartments,6230 S. Dorchester Ave.,60637,773-288-4202,Woodlawn East Community,84,1158163.0704036378,,,,
Woodlawn,42,Multifamily,Renaissance Apartments,6200 S. University Ave.,60637,773-752-9400,AIMCO,64,1186141.3660938477,1910570.5211780062,41.9103537221,-87.694404013,"6200 S. University Ave.
(41.9103537221, -87.694404013)"
Woodlawn,42,Multifamily,WECAN,6450 S. Stony Island Ave.,60637,773-288-3000,WECAN,117,1186573.2624279982,1862376.5606601068,41.7774890264,-87.5931497136,"6450 S. Stony Island Ave.
(41.7774890264, -87.5931497136)"
Woodlawn,42,Multifamily,65th Street Apartments,6600 S. Greenwood Ave.,60637,773-684-2056,"Urban Property Advisors, LLC",42,1184799.335314034,1863816.8653135095,41.7814311307,-87.5915208532,"6600 S. Greenwood Ave.
(41.7814311307, -87.5915208532)"
Woodlawn,42,Multifamily,65th Street Apartments,6522 S. Ingleside Ave.,60637,773-684-2056,"Urban Property Advisors, LLC",18,1187957.5964530848,1864093.1165452064,41.7822309985,-87.598015727,"6522 S. Ingleside Ave.
(41.7822309985, -87.598015727)"
Woodlawn,42,Multifamily,65th Street Apartments,6400 S. Maryland Ave.,60637,773-684-2056,"Urban Property Advisors, LLC",15,1184316.0378951721,1862318.6370591703,41.7772869881,-87.5864933515,"6400 S. Maryland Ave.
(41.7772869881, -87.5864933515)"
Woodlawn,42,Multifamily,65th Street Apartments,848-58 E. 65th St.,60637,773-684-2056,"Urban Property Advisors, LLC",6,1183642.0293026692,1861429.0767049037,41.7749319632,-87.5998709117,"848-58 E. 65th St.
(41.7749319632, -87.5998709117)"
Woodlawn,42,Multifamily,65th Street Apartments,817 E. 64th St.,60637,773-684-2056,"Urban Property Advisors, LLC",6,1182961.6084218968,1861850.3440547157,41.7761037074,-87.6023285746,"817 E. 64th St.
(41.7761037074, -87.6023285746)"
Woodlawn,42,Multifamily,Dorchester Apartments,1410 E. 62nd St.,60637,773-572-5500,The Thresholds,67,1183196.2396570912,1862758.2552538288,41.7786109444,-87.6047947203,"1410 E. 62nd St.
(41.7786109444, -87.6047947203)"
Woodlawn,42,Senior,Butler Apartments,6146 S. Kenwood Ave.,60637,773-955-9290,Woodlawn Comm. Dev. Corp.,17,1182676.8468949487,1862140.1148931726,41.7769092523,-87.603953777,"6146 S. Kenwood Ave.
(41.7769092523, -87.603953777)"
Woodlawn ,42,Multifamily,The Grant at Woodlawn Pk Phase I,6227-29 S. Cottage Grove Ave.,60637,312-283-0030,Preservation Housing Management LLC,67,1186722.4042227406,1863775.1466971007,41.7814080037,-87.6058071228,"6227-29 S. Cottage Grove Ave.
(41.7814080037, -87.6058071228)"
Woodlawn,42,Multifamily,The Grant at Woodlawn Pk Phase II,6129 S. Cottage Grove Ave.,60637,312-283-0030,Preservation Housing Management LLC,33,1186094.2588179822,1864209.5724381572,41.7825052194,-87.5909616433,"6129 S. Cottage Grove Ave.
(41.7825052194, -87.5909616433)"
,,,,,,,,,,1864312.8427305536,41.7828034603,-87.5932613147,"(41.7828034603, -87.5932613147)"
